STARLINK-37589          
1 69839U 26154W   26201.55354771  .00126773  00000+0  63532-3 0  9998
2 69839  53.1572 265.9212 0000622  90.7471 269.3623 15.80911316  3666
STARLINK-37487          
1 69840U 26154X   26201.58335648 -.00008397  00000+0 -39039-4 0  9994
2 69840  53.1590 265.2914 0001216  79.7364 321.7754 15.80873867  3518
STARLINK-37433          
1 69841U 26154Y   26201.58335648 -.00025921  00000+0 -12814-3 0  9998
2 69841  53.1593 265.2927 0001193  73.4169 327.4579 15.80879307  3641
STARLINK-37588          
1 69842U 26154Z   26201.58335648 -.00015423  00000+0 -74720-4 0  9990
2 69842  53.1590 265.2568 0001229  66.5982 351.4557 15.80876644  3549
STARLINK-37579          
1 69843U 26154AA  26201.58335648  .00008294  00000+0  45545-4 0  9990
2 69843  53.1592 265.2599 0001011  80.8431 335.6347 15.80860912  3545
STARLINK-37584          
1 69844U 26154AB  26201.58335648 -.00009529  00000+0 -44776-4 0  9990
2 69844  53.1594 265.2522 0001498  58.8671   1.4246 15.80877132  3542
STARLINK-37606          
1 69845U 26154AC  26201.58335648 -.00007483  00000+0 -34399-4 0  9998
2 69845  53.1592 265.2405 0001214  87.0775 338.3794 15.80874563  3541
STARLINK-37603          
1 69846U 26154AD  26201.58335648 -.00003964  00000+0 -16550-4 0  9998
2 69846  53.1594 265.2336 0001175  79.2829 349.5121 15.80874341  3548
STARLINK-37595          
1 69847U 26154AE  26201.58335648  .00018211  00000+0  95664-4 0  9991
2 69847  53.1595 265.2223 0001089  72.4911   1.5087 15.80860195  3544
QIANFAN-219             
1 69848U 26155A   26201.62493541 -.01948385  00000+0 -96168+0 0  9997
2 69848  89.0058  60.3281 0030877 205.1508 154.8180 14.21193915  2154
QIANFAN-220             
1 69849U 26155B   26201.51873731  .00000043  00000+0  13923-4 0  9999
2 69849  89.0062  60.3486 0029870 204.3210 155.6571 14.17597987  2132
QIANFAN-221             
1 69850U 26155C   26201.48384596  .00000187  00000+0  71107-4 0  9990
2 69850  89.0062  60.3435 0030871 205.4659 154.5015 14.26648527  2138
QIANFAN-222             
1 69851U 26155D   26201.58008160 -.01761913  00000+0 -99704+0 0  9994
2 69851  89.0057  60.3397 0031202 204.0714 155.9016 14.14115223  2142
QIANFAN-223             
1 69852U 26155E   26201.57559889 -.02029499  00000+0 -11121+1 0  9998
2 69852  89.0061  60.3399 0034026 208.1479 151.7871 14.15718094  2149
QIANFAN-224             
1 69853U 26155F   26201.57164679 -.01855063  00000+0 -10008+1 0  9994
2 69853  89.0044  60.3370 0033097 211.5288 148.3917 14.16214581  2149
QIANFAN-225             
1 69854U 26155G   26201.56961132 -.01984824  00000+0 -10710+1 0  9991
2 69854  89.0053  60.3378 0034570 210.6462 149.2708 14.16443641  2148
QIANFAN-226             
1 69855U 26155H   26201.56823626 -.02022654  00000+0 -10853+1 0  9990
2 69855  89.0057  60.3382 0036406 208.6705 151.2483 14.16790662  2146
QIANFAN-227             
1 69856U 26155J   26201.56326532 -.02081505  00000+0 -11109+1 0  9990
2 69856  89.0058  60.3377 0037013 205.0412 154.8983 14.17185293  2146
QIANFAN-228             
1 69857U 26155K   26201.63169203 -.02030143  00000+0 -10703+1 0  9990
2 69857  89.0063  60.3285 0036795 204.1193 155.8275 14.17743907  2151
QIANFAN-229             
1 69858U 26155L   26201.55569703 -.02081727  00000+0 -10575+1 0  9992
2 69858  89.0058  60.3373 0032108 203.8299 156.1407 14.19919120  2145
QIANFAN-230             
1 69859U 26155M   26201.58432919 -.01761869  00000+0 -10107+1 0  9996
2 69859  89.0053  60.3396 0029436 199.9949 160.0086 14.13401265  2140
QIANFAN-231             
1 69860U 26155N   26199.94418398  .00000187  00000+0  71811-4 0  9998
2 69860  89.0065  60.5202 0030899 209.7131 150.2309 14.26097133  1913
QIANFAN-232             
1 69861U 26155P   26199.93898905 -.01928897  00000+0 -92873+0 0  9990
2 69861  89.0055  60.5197 0029251 204.9431 155.0349 14.22492911  1912
QIANFAN-233             
1 69862U 26155Q   26200.56899891 -.01641998  00000+0 -79470+0 0  9990
2 69862  89.0060  60.4472 0028685 211.5277 148.4197 14.22233601  2003
QIANFAN-234             
1 69863U 26155R   26201.55151117 -.01868372  00000+0 -89623+0 0  9991
2 69863  89.0058  60.3356 0027915 207.1698 152.8035 14.22587452  2145
QIANFAN-235             
1 69864U 26155S   26201.55290222  .00000175  00000+0  66153-4 0  9997
2 69864  89.0063  60.3355 0030765 205.3485 154.6201 14.26765751  2141
QIANFAN-236             
1 69865U 26155T   26200.08004672  .00000191  00000+0  72759-4 0  9994
2 69865  89.0064  60.5035 0030561 210.4183 149.5239 14.26770514  1939
QIANFAN-237             
1 69866U 26155U   26201.13196272  .00000189  00000+0  71817-4 0  9991
2 69866  89.0063  60.3835 0030657 206.8464 153.1145 14.26779110  2076
QIANFAN-238             
1 69867U 26155V   26201.48255080  .00000197  00000+0  74970-4 0  9995
2 69867  89.0063  60.3434 0030682 205.6733 154.2940 14.26786738  2132
