OBJECT_NAME,OBJECT_ID,EPOCH,MEAN_MOTION,ECCENTRICITY,INCLINATION,RA_OF_ASC_NODE,ARG_OF_PERICENTER,MEAN_ANOMALY,EPHEMERIS_TYPE,CLASSIFICATION_TYPE,NORAD_CAT_ID,ELEMENT_SET_NO,REV_AT_EPOCH,BSTAR,MEAN_MOTION_DOT,MEAN_MOTION_DDOT
STARLINK-37589,2026-154W,2026-07-20T13:17:06.522144,15.80911316,.00006221,53.1572,265.9212,90.7471,269.3623,0,U,69839,999,366,.63532231E-3,.126773E-2,0
STARLINK-37487,2026-154X,2026-07-20T14:00:01.999872,15.80873867,.0001216,53.1590,265.2914,79.7364,321.7754,0,U,69840,999,351,-.39039251E-4,-.8397E-4,0
STARLINK-37433,2026-154Y,2026-07-20T14:00:01.999872,15.80879307,.00011935,53.1593,265.2927,73.4169,327.4579,0,U,69841,999,364,-.12813993E-3,-.25921E-3,0
STARLINK-37588,2026-154Z,2026-07-20T14:00:01.999872,15.80876644,.00012295,53.1590,265.2568,66.5982,351.4557,0,U,69842,999,354,-.74720011E-4,-.15423E-3,0
STARLINK-37579,2026-154AA,2026-07-20T14:00:01.999872,15.80860912,.00010114,53.1592,265.2599,80.8431,335.6347,0,U,69843,999,354,.45544854E-4,.8294E-4,0
STARLINK-37584,2026-154AB,2026-07-20T14:00:01.999872,15.80877132,.00014981,53.1594,265.2522,58.8671,1.4246,0,U,69844,999,354,-.44775552E-4,-.9529E-4,0
STARLINK-37606,2026-154AC,2026-07-20T14:00:01.999872,15.80874563,.00012142,53.1592,265.2405,87.0775,338.3794,0,U,69845,999,354,-.34398776E-4,-.7483E-4,0
STARLINK-37603,2026-154AD,2026-07-20T14:00:01.999872,15.80874341,.00011753,53.1594,265.2336,79.2829,349.5121,0,U,69846,999,354,-.16550255E-4,-.3964E-4,0
STARLINK-37595,2026-154AE,2026-07-20T14:00:01.999872,15.80860195,.00010893,53.1595,265.2223,72.4911,1.5087,0,U,69847,999,354,.95664413E-4,.18211E-3,0
QIANFAN-219,2026-155A,2026-07-20T14:59:54.419424,14.21193915,.00308775,89.0058,60.3281,205.1508,154.8180,0,U,69848,999,215,-.961679E+0,-.1948385E-1,0
QIANFAN-220,2026-155B,2026-07-20T12:26:58.903584,14.17597987,.00298704,89.0062,60.3486,204.3210,155.6571,0,U,69849,999,213,.13923431E-4,.43E-6,0
QIANFAN-221,2026-155C,2026-07-20T11:36:44.290944,14.26648527,.00308713,89.0062,60.3435,205.4659,154.5015,0,U,69850,999,213,.71107092E-4,.187E-5,0
QIANFAN-222,2026-155D,2026-07-20T13:55:19.050240,14.14115223,.00312022,89.0057,60.3397,204.0714,155.9016,0,U,69851,999,214,-.99703691E+0,-.1761913E-1,0
QIANFAN-223,2026-155E,2026-07-20T13:48:51.744096,14.15718094,.0034026,89.0061,60.3399,208.1479,151.7871,0,U,69852,999,214,-.11120877E+1,-.2029499E-1,0
QIANFAN-224,2026-155F,2026-07-20T13:43:10.282656,14.16214581,.00330971,89.0044,60.3370,211.5288,148.3917,0,U,69853,999,214,-.10008373E+1,-.1855063E-1,0
QIANFAN-225,2026-155G,2026-07-20T13:40:14.418048,14.16443641,.00345705,89.0053,60.3378,210.6462,149.2708,0,U,69854,999,214,-.10710354E+1,-.1984824E-1,0
QIANFAN-226,2026-155H,2026-07-20T13:38:15.612864,14.16790662,.00364063,89.0057,60.3382,208.6705,151.2483,0,U,69855,999,214,-.10852941E+1,-.2022654E-1,0
QIANFAN-227,2026-155J,2026-07-20T13:31:06.123648,14.17185293,.00370131,89.0058,60.3377,205.0412,154.8983,0,U,69856,999,214,-.11109412E+1,-.2081505E-1,0
QIANFAN-228,2026-155K,2026-07-20T15:09:38.191392,14.17743907,.00367959,89.0063,60.3285,204.1193,155.8275,0,U,69857,999,215,-.10702793E+1,-.2030143E-1,0
QIANFAN-229,2026-155L,2026-07-20T13:20:12.223392,14.19919120,.00321085,89.0058,60.3373,203.8299,156.1407,0,U,69858,999,214,-.10574566E+1,-.2081727E-1,0
QIANFAN-230,2026-155M,2026-07-20T14:01:26.042016,14.13401265,.00294364,89.0053,60.3396,199.9949,160.0086,0,U,69859,999,214,-.10107308E+1,-.1761869E-1,0
QIANFAN-231,2026-155N,2026-07-18T22:39:37.495872,14.26097133,.00308993,89.0065,60.5202,209.7131,150.2309,0,U,69860,999,191,.71810741E-4,.187E-5,0
QIANFAN-232,2026-155P,2026-07-18T22:32:08.653920,14.22492911,.0029251,89.0055,60.5197,204.9431,155.0349,0,U,69861,999,191,-.9287293E+0,-.1928897E-1,0
QIANFAN-233,2026-155Q,2026-07-19T13:39:21.505824,14.22233601,.00286859,89.0060,60.4472,211.5277,148.4197,0,U,69862,999,200,-.79470459E+0,-.1641998E-1,0
QIANFAN-234,2026-155R,2026-07-20T13:14:10.565088,14.22587452,.00279159,89.0058,60.3356,207.1698,152.8035,0,U,69863,999,214,-.89622639E+0,-.1868372E-1,0
QIANFAN-235,2026-155S,2026-07-20T13:16:10.751808,14.26765751,.00307659,89.0063,60.3355,205.3485,154.6201,0,U,69864,999,214,.66153359E-4,.175E-5,0
QIANFAN-236,2026-155T,2026-07-19T01:55:16.036608,14.26770514,.00305619,89.0064,60.5035,210.4183,149.5239,0,U,69865,999,193,.72758697E-4,.191E-5,0
QIANFAN-237,2026-155U,2026-07-20T03:10:01.579008,14.26779110,.00306571,89.0063,60.3835,206.8464,153.1145,0,U,69866,999,207,.71817173E-4,.189E-5,0
QIANFAN-238,2026-155V,2026-07-20T11:34:52.389120,14.26786738,.00306825,89.0063,60.3434,205.6733,154.2940,0,U,69867,999,213,.74969548E-4,.197E-5,0
